FLOCK 4G-5              
1 62663U 25009BG  26068.45638436  .00011278  00000+0  40688-3 0  9997
2 62663  97.4058 151.2478 0002094 314.5072  45.5996 15.28679529 63699
STARLINK-33689          
1 63322U 25057R   26067.92109216  .00049711  00000+0  18043-2 0  9995
2 63322  42.9984  34.8610 0001513 264.9335  95.1344 15.27571256 55667
